EYESAT A (AO-27)        
1 22825U 93061C   26132.12878029  .00000048  00000+0  35226-4 0  9992
2 22825  98.6892 199.5521 0008009 198.7096 161.3793 14.30932122701849
ITAMSAT (IO-26)         
1 22826U 93061D   26132.18883257  .00000041  00000+0  32426-4 0  9990
2 22826  98.6840 199.5260 0008855 182.0397 178.0752 14.31358029702167
RADIO ROSTO (RS15)      
1 23439U 94085A   26132.19690343 -.00000047  00000+0 -11641-3 0  9994
2 23439  64.8201   1.4246 0154943  10.4635 349.9454 11.27583718291841
JAS-2 (FO-29)           
1 24278U 96046B   26132.08235385 -.00000036  00000+0 -75877-6 0  9996
2 24278  98.5280 345.8926 0349676 189.9733 169.4342 13.53272280468289
FORTE                   
1 24920U 97047A   26132.15937120  .00000113  00000+0  68909-4 0  9996
2 24920  69.9520  95.3963 0023622 321.4397  38.5037 14.27929656493541
TECHSAT 1B (GO-32)      
1 25397U 98043D   26131.95939633  .00000037  00000+0  36343-4 0  9992
2 25397  99.0064 123.8065 0001062  14.7398 345.3810 14.24421146446177
ISS (ZARYA)             
1 25544U 98067A   26132.19887557  .00004768  00000+0  94032-4 0  9990
2 25544  51.6311 118.2489 0007482  49.7800 310.3842 15.49191983566177
IMAGE                   
1 26113U 00017A   26131.51486742  .00000008  00000+0 -20584-1 0  9999
2 26113  94.2002 314.8870 7459903 291.9767   8.1989  1.68665748160880
CLUSTER II-FM7 (SAMBA)  
1 26410U 00041A   26130.20719946  .00003007  00000+0  00000+0 0  9996
2 26410 149.7574  44.0320 9007788 260.7661   0.4598  0.44818912 20131
CLUSTER II-FM8 (TANGO)  
1 26464U 00045B   26130.14160082  .00003120  00000+0  00000+0 0  9999
2 26464 150.0346  45.1293 9013438 261.7017   0.4740  0.44409144 20129
ODIN                    
1 26702U 01007A   26132.08926049  .00071017  00000+0  69283-3 0  9993
2 26702  97.3937 170.9956 0001958 199.0774 161.0413 15.65988801383735
OMNI-M1                 
1 26857U 01026A   26131.53751176 -.00000020  00000+0  00000+0 0  9996
2 26857  44.8444 253.7114 0015492  47.0887 313.0619  3.92401500204133
PCSAT (NO-44)           
1 26931U 01043C   26131.97921738  .00000067  00000+0  55952-4 0  9990
2 26931  67.0513 337.9227 0006289 263.7145  96.3240 14.31941646285267
PROBA-1                 
1 26958U 01049B   26132.15855709  .00001824  00000+0  12143-3 0  9996
2 26958  97.9615 139.4356 0053779 244.2474 115.3196 15.07360631338190
SAUDISAT 1C (SO-50)     
1 27607U 02058C   26131.40363783  .00000664  00000+0  96093-4 0  9990
2 27607  64.5523 242.7840 0075631 269.1895  90.0545 14.82967825259009
CORIOLIS                
1 27640U 03001A   26132.04851363  .00000072  00000+0  54631-4 0  9998
2 27640  98.7137 139.4843 0013212 321.0502  38.9721 14.19934607209094
CUTE-1 (CO-55)          
1 27844U 03031E   26131.92940550  .00000190  00000+0  10139-3 0  9995
2 27844  98.6747 140.9437 0008369 293.9469  66.0833 14.24312642186510
CUBESAT XI-IV (CO-57)   
1 27848U 03031J   26131.97000580  .00000168  00000+0  92943-4 0  9993
2 27848  98.6780 140.7254 0008525 314.7788  45.2696 14.23600890186224
MOZHAETS 4 (RS22)       
1 27939U 03042A   26132.23028714  .00000521  00000+0  88674-4 0  9994
2 27939  98.3476 315.5756 0011921  28.6641  86.1548 14.73402028210255
