OBJECT_NAME,OBJECT_ID,EPOCH,MEAN_MOTION,ECCENTRICITY,INCLINATION,RA_OF_ASC_NODE,ARG_OF_PERICENTER,MEAN_ANOMALY,EPHEMERIS_TYPE,CLASSIFICATION_TYPE,NORAD_CAT_ID,ELEMENT_SET_NO,REV_AT_EPOCH,BSTAR,MEAN_MOTION_DOT,MEAN_MOTION_DDOT
EYESAT A (AO-27),1993-061C,2026-05-12T03:05:26.617056,14.30932122,.0008009,98.6892,199.5521,198.7096,161.3793,0,U,22825,999,70184,.35226E-4,.48E-6,0
ITAMSAT (IO-26),1993-061D,2026-05-12T04:31:55.134048,14.31358029,.0008855,98.6840,199.5260,182.0397,178.0752,0,U,22826,999,70216,.32426E-4,.41E-6,0
RADIO ROSTO (RS15),1994-085A,2026-05-12T04:43:32.456352,11.27583718,.0154943,64.8201,1.4246,10.4635,349.9454,0,U,23439,999,29184,-.11641E-3,-.47E-6,0
JAS-2 (FO-29),1996-046B,2026-05-12T01:58:35.372640,13.53272280,.0349676,98.5280,345.8926,189.9733,169.4342,0,U,24278,999,46828,-.75877E-6,-.36E-6,0
FORTE,1997-047A,2026-05-12T03:49:29.671680,14.27929656,.0023622,69.9520,95.3963,321.4397,38.5037,0,U,24920,999,49354,.68909E-4,.113E-5,0
TECHSAT 1B (GO-32),1998-043D,2026-05-11T23:01:31.842912,14.24421146,.0001062,99.0064,123.8065,14.7398,345.3810,0,U,25397,999,44617,.36343E-4,.37E-6,0
ISS (ZARYA),1998-067A,2026-05-12T04:46:22.849248,15.49191983,.0007482,51.6311,118.2489,49.7800,310.3842,0,U,25544,999,56617,.94032E-4,.4768E-4,0
IMAGE,2000-017A,2026-05-11T12:21:24.545088,1.68665748,.74599038,94.2002,314.8870,291.9767,8.1989,0,U,26113,999,16088,-.20584314E-1,.8E-7,0
CLUSTER II-FM7 (SAMBA),2000-041A,2026-05-10T04:58:22.033344,0.44818912,.90077886,149.7574,44.0320,260.7661,0.4598,0,U,26410,999,2013,0,.3007E-4,0
CLUSTER II-FM8 (TANGO),2000-045B,2026-05-10T03:23:54.310848,0.44409144,.90134383,150.0346,45.1293,261.7017,0.4740,0,U,26464,999,2012,0,.312E-4,0
ODIN,2001-007A,2026-05-12T02:08:32.106336,15.65988801,.0001958,97.3937,170.9956,199.0774,161.0413,0,U,26702,999,38373,.69283E-3,.71017E-3,0
OMNI-M1,2001-026A,2026-05-11T12:54:01.016064,3.92401500,.0015492,44.8444,253.7114,47.0887,313.0619,0,U,26857,999,20413,0,-.2E-6,0
PCSAT (NO-44),2001-043C,2026-05-11T23:30:04.381632,14.31941646,.0006289,67.0513,337.9227,263.7145,96.3240,0,U,26931,999,28526,.55952E-4,.67E-6,0
PROBA-1,2001-049B,2026-05-12T03:48:19.332576,15.07360631,.0053779,97.9615,139.4356,244.2474,115.3196,0,U,26958,999,33819,.12143E-3,.1824E-4,0
SAUDISAT 1C (SO-50),2002-058C,2026-05-11T09:41:14.308512,14.82967825,.0075631,64.5523,242.7840,269.1895,90.0545,0,U,27607,999,25900,.96092981E-4,.664E-5,0
CORIOLIS,2003-001A,2026-05-12T01:09:51.577632,14.19934607,.0013212,98.7137,139.4843,321.0502,38.9721,0,U,27640,999,20909,.54631E-4,.72E-6,0
CUTE-1 (CO-55),2003-031E,2026-05-11T22:18:20.635200,14.24312642,.0008369,98.6747,140.9437,293.9469,66.0833,0,U,27844,999,18651,.10139E-3,.19E-5,0
CUBESAT XI-IV (CO-57),2003-031J,2026-05-11T23:16:48.501120,14.23600890,.0008525,98.6780,140.7254,314.7788,45.2696,0,U,27848,999,18622,.92943E-4,.168E-5,0
MOZHAETS 4 (RS22),2003-042A,2026-05-12T05:31:36.808896,14.73402028,.0011921,98.3476,315.5756,28.6641,86.1548,0,U,27939,999,21025,.88674E-4,.521E-5,0
